#aV2010  6 27  0  0   .00000000      96 DD+AD WGS84 FIT  NGA
## 1590       .00000000   900.00000000 55374  .0000000000000
+   31     1  2  3  4  5  6  7  8  9 10 11 12 13 14 15 16 17
+         18 19 20 21 22 23 24 26 27 28 29 30 31 32  0  0  0
+          0  0  0  0  0  0  0  0  0  0  0  0  0  0  0  0  0
+          0  0  0  0  0  0  0  0  0  0  0  0  0  0  0  0  0
+          0  0  0  0  0  0  0  0  0  0  0  0  0  0  0  0  0
++         0  0  0  0  0  0  0  0  0  0  0  0  0  0  0  0  0
++         0  0  0  0  0  0  0  0  0  0  0  0  0  0  0  0  0
++         0  0  0  0  0  0  0  0  0  0  0  0  0  0  0  0  0
++         0  0  0  0  0  0  0  0  0  0  0  0  0  0  0  0  0
++         0  0  0  0  0  0  0  0  0  0  0  0  0  0  0  0  0
%c cc cc ccc ccc cccc cccc cccc cccc ccccc ccccc ccccc ccccc
%c cc cc ccc ccc cccc cccc cccc cccc ccccc ccccc ccccc ccccc
%f  0.0000000  0.000000000  0.00000000000  0.000000000000000
%f  0.0000000  0.000000000  0.00000000000  0.000000000000000
%i    0    0    0    0      0      0      0      0         0
%i    0    0    0    0      0      0      0      0         0
/*      NGA, ST. LOUIS,MO.                                  
/*   EPHEMERIS COMPUTED FROM  3 DAYS OF DATA                
/* CCCCCCCCCCCCCCCCCCCCCCCCCCCCCCCCCCCCCCCCCCCCCCCCCCCCCCCCC
/* CCCCCCCCCCCCCCCCCCCCCCCCCCCCCCCCCCCCCCCCCCCCCCCCCCCCCCCCC
*  2010  6 27 16 30   .00000000                                                 
P  1   5390.513401 -25889.729313   1439.200221   -135.154485                    
V  1   2417.151230   2415.223421  31879.919643      -.040009                    
P  2   9640.828564  20775.423827  13813.306719    268.197566                    
V  2 -15053.682878  -9117.794033  23732.394567       .031703                    
P  3  -5252.884971 -15332.763119 -21391.033007    574.078414                    
V  3  23772.488127 -11645.386368   2900.505934       .049794                    
P  4  -4745.265236  15739.767488  20626.258224    112.931288                    
V  4 -21183.300164 -16351.966001   7897.921411       .081150                    
P  5   3515.505636  24029.744278 -10669.351608     -9.929484                    
V  5  -4827.377523  12934.123767  27658.917153      -.025715                    
P  6    685.419892 -16698.576415 -20434.198863    593.285627                    
V  6  24793.832650  -9373.515193   8573.298633      -.133877                    
P  7 -19874.826729   -922.840877 -17695.460435     -1.465745                    
V  7 -16231.464129 -15421.485516  18875.596078      -.001803                    
P  8 -11648.792081   8868.626329 -22199.680493      5.920275                    
V  8 -20236.288435 -19405.239318   2351.230545       .001605                    
P  9  21118.942491  16090.840494    672.246423     14.966560                    
V  9   -154.761368   2644.204897 -32156.929103       .022232                    
P 10  -4615.766524  25955.213683   -673.703385    -45.633836                    
V 10  -3422.381458    -14.599600  31802.236809      -.009401                    
P 11 -24769.758822  -9597.663407   2919.851771    -71.838212                    
V 11  -1512.864175  -6025.556567 -29532.126418      -.025235                    
P 12  12883.019593   9771.978255  21143.316439    -99.598153                    
V 12  -5418.951345  26131.637084  -8642.505100       .040716                    
P 13 -25807.129073   4538.678309   4333.722081    302.662488                    
V 13   4946.812782  -3254.801946  31797.259807      -.005840                    
P 14  17214.795118 -14908.173057  13694.151255     61.679458                    
V 14  16866.868877  -3578.197596 -25483.559483       .041682                    
P 15  14556.078002   9622.052096 -20045.222570   -249.046899                    
V 15 -23358.017111  10219.221473 -11929.724824       .063848                    
P 16   1068.208786 -25704.585555  -5945.147960    -84.285584                    
V 16   4048.639589  -6980.735929  30993.476998      -.036521                    
P 17 -18589.439940  14915.866637  11600.690816    158.941342                    
V 17 -14681.221609   2329.403813 -26972.858651       .020918                    
P 18  15806.863971  -9771.679058 -18557.595679     77.307410                    
V 18  -2722.489117  24282.993794 -15264.732475       .023821                    
P 19 -15012.222165 -10061.307594 -19538.684638    -45.392725                    
V 19  23557.815362  -7779.405808 -13762.129863      -.028665                    
P 20 -14441.997359  -7459.192560  20878.502299     54.084136                    
V 20   4455.274591 -26539.963549  -6310.153911      -.004961                    
P 21  18577.159498  -2388.335883 -18709.084520    -70.018010                    
V 21  17547.039183  16989.772974  14352.882667      -.026289                    
P 22  12147.206385 -21006.232410 -10522.674542    168.799507                    
V 22    513.373999  14065.831605 -27153.931438      -.010065                    
P 23 -23262.233048  -1207.687862  13035.846690    365.320211                    
V 23  14862.814441  -7302.923805  25477.948250      -.015359                    
P 24   3295.751512 -16792.224881 -20303.727159    299.694885                    
V 24  19681.926095  16900.172327 -10496.404931       .031887                    
P 26  14267.027070   9969.142553 -20720.393658    -72.537103                    
V 26 -23779.202106   7428.235655 -12744.736753      -.058614                    
P 27  20513.932164  16837.957632  -1748.091406    164.928466                    
V 27  -3720.973352    -94.670940 -31933.249966       .035298                    
P 28 -12796.668590  19099.815831 -12565.834937    -12.291581                    
V 28   1134.492349 -16950.499164 -26222.297220       .011950                    
P 29  25606.524970  -4511.047732   5408.013662    130.513425                    
V 29  -5544.100637   4751.681811  30780.074292       .027837                    
P 30  15358.576598  -3537.109421  20973.011557    255.624027                    
V 30  -2843.010670  27450.270675   6635.835542       .034340                    
P 31   1767.154401 -16758.798067  20689.012486    -28.220861                    
V 31  20315.205474  15942.122186  11460.381252       .024576                    
P 32  -9830.597830 -15907.022935  19329.698504    -25.137155                    
V 32   7106.877164 -22658.048646 -14961.769230      -.085405                    
EOF
